BEIDOU-2 IGSO-1 (C06)   
1 36828U 10036A   23274.81651410 -.00000113  00000+0  00000+0 0  9995
2 36828  54.2344 171.9240 0036721 187.5207  49.4722  1.00245438 48304
BEIDOU-2 G4 (C04)       
1 37210U 10057A   23275.76785647 -.00000120  00000+0  00000+0 0  9997
2 37210   1.2395  62.1348 0007107 160.8728 224.6292  1.00272599 47379
BEIDOU-2 IGSO-2 (C07)   
1 37256U 10068A   23275.86949243 -.00000196  00000+0  00000+0 0  9997
2 37256  49.3577 283.9573 0032262 213.2859 295.5511  1.00274604 46879
BEIDOU-2 IGSO-3 (C08)   
1 37384U 11013A   23274.80795348 -.00000190  00000+0  00000+0 0  9992
2 37384  60.9812  49.6283 0028244 175.8950 183.8374  1.00274476 45734
BEIDOU-2 IGSO-4 (C09)   
1 37763U 11038A   23275.14795935 -.00000095  00000+0  00000+0 0  9994
2 37763  54.5079 174.4661 0112043 227.7584 116.9594  1.00268222 44728
BEIDOU-2 IGSO-5 (C10)   
1 37948U 11073A   23275.49748170 -.00000147  00000+0  00000+0 0  9993
2 37948  49.4841 283.6311 0095078 220.7557 141.1304  1.00265983 43492
BEIDOU-2 G5 (C05)       
1 38091U 12008A   23275.72960699  .00000049  00000+0  00000+0 0  9990
2 38091   1.7769  68.8655 0005361 177.9713  85.7026  1.00269908 42561
BEIDOU-2 M3 (C11)       
1 38250U 12018A   23275.65707613 -.00000101  00000+0  00000+0 0  9995
2 38250  56.4953 337.9355 0024520 256.9134 102.8730  1.86231109 77871
BEIDOU-2 M4 (C12)       
1 38251U 12018B   23275.58839655 -.00000100  00000+0  00000+0 0  9999
2 38251  56.4057 337.2287 0015393 257.2088 102.6796  1.86231817 77881
BEIDOU-2 M6 (C14)       
1 38775U 12050B   23275.83513938 -.00000004  00000+0  00000+0 0  9990
2 38775  55.7133  95.8114 0010923 340.2335  19.7616  1.86231205 75256
BEIDOU-2 G6 (C02)       
1 38953U 12059A   23275.80705027 -.00000184  00000+0  00000+0 0  9995
2 38953   1.8978  81.8216 0006782 304.2728 359.7793  1.00271863 40137
BEIDOU-3S IGSO-1S (C31) 
1 40549U 15019A   23275.85748203 -.00000146  00000+0  00000+0 0  9994
2 40549  51.0477 307.2345 0040998 197.2059 267.0517  1.00250564 31156
BEIDOU-3S M2S (C57)     
1 40748U 15037A   23274.71697786 -.00000096  00000+0  00000+0 0  9992
2 40748  55.6458 335.8402 0012253 244.8769 115.0578  1.86233025 55698
BEIDOU-3S M1S (C58)     
1 40749U 15037B   23275.52406339 -.00000100  00000+0  00000+0 0  9991
2 40749  55.6484 335.7991 0004341 295.5857  64.4297  1.86232845 55706
BEIDOU-3S IGSO-2S (C56) 
1 40938U 15053A   23274.94910130 -.00000138  00000+0  00000+0 0  9994
2 40938  50.7679 270.4218 0047853 194.5704 343.6734  1.00276739 29423
BEIDOU-2 IGSO-6 (C13)   
1 41434U 16021A   23275.34812929 -.00000168  00000+0  00000+0 0  9997
2 41434  58.7967  47.9804 0048082 218.5753 326.3894  1.00277251 27554
BEIDOU-2 G7 (C03)       
1 41586U 16037A   23275.86752877 -.00000362  00000+0  00000+0 0  9990
2 41586   1.9384  68.8047 0006820 339.8675  25.5361  1.00271247 26870
BEIDOU-3 M1 (C19)       
1 43001U 17069A   23275.06450096  .00000001  00000+0  00000+0 0  9999
2 43001  55.8642  95.8993 0007193 298.7665  61.2019  1.86231516 40181
BEIDOU-3 M2 (C20)       
1 43002U 17069B   23275.53823309 -.00000002  00000+0  00000+0 0  9995
2 43002  55.8638  95.9202 0005518 333.9822  26.0287  1.86231155 40182
BEIDOU-3 M7 (C27)       
1 43107U 18003A   23274.75202792 -.00000098  00000+0  00000+0 0  9995
2 43107  55.1022 336.5435 0002906  74.9817 285.1113  1.86232335 38931
BEIDOU-3 M8 (C28)       
1 43108U 18003B   23274.69035536 -.00000098  00000+0  00000+0 0  9999
2 43108  55.0952 336.5325 0004546 248.1599 111.8528  1.86230831 38939
BEIDOU-3 M4 (C22)       
1 43207U 18018A   23275.13251970  .00000000  00000+0  00000+0 0  9999
2 43207  55.8232  95.9950 0004337  20.1139 339.9438  1.86231452 38320
BEIDOU-3 M3 (C21)       
1 43208U 18018B   23275.19918071  .00000000  00000+0  00000+0 0  9998
2 43208  55.8225  95.9973 0005119 317.5988  42.4018  1.86231405 38320
BEIDOU-3 M9 (C29)       
1 43245U 18029A   23275.42193527 -.00000099  00000+0  00000+0 0  9997
2 43245  54.9949 334.2514 0001843 234.6587 125.3842  1.86232537 37487
BEIDOU-3 M10 (C30)      
1 43246U 18029B   23275.35191959 -.00000098  00000+0  00000+0 0  9996
2 43246  54.9922 334.2828 0002916 344.1992  15.8520  1.86232853 37472
BEIDOU-2 IGSO-7 (C16)   
1 43539U 18057A   23274.65384562 -.00000130  00000+0  00000+0 0  9995
2 43539  55.1184 171.6201 0064056 230.4874 317.2700  1.00275136 19226
BEIDOU-3 M5 (C23)       
1 43581U 18062A   23275.57212272  .00000013  00000+0  00000+0 0  9997
2 43581  54.1719 215.9499 0004415 288.2152  71.7225  1.86231828 35226
BEIDOU-3 M6 (C24)       
1 43582U 18062B   23275.43836115  .00000013  00000+0  00000+0 0  9991
2 43582  54.1715 215.9440 0005431   6.2182 353.7736  1.86229714 35220
BEIDOU-3 M12 (C26)      
1 43602U 18067A   23274.30049707  .00000008  00000+0  00000+0 0  9991
2 43602  54.2595 214.6407 0007308  16.0870 343.9166  1.86231422 34683
BEIDOU-3 M11 (C25)      
1 43603U 18067B   23275.50823304  .00000013  00000+0  00000+0 0  9994
2 43603  54.2563 214.5655 0004320   3.8409 356.1500  1.86231422 34730
BEIDOU-3 M13 (C32)      
1 43622U 18072A   23274.93024225  .00000001  00000+0  00000+0 0  9999
2 43622  55.7923  95.5417 0004016 293.0241  66.9742  1.86231473 34234
BEIDOU-3 M14 (C33)      
1 43623U 18072B   23275.86959473 -.00000004  00000+0  00000+0 0  9999
2 43623  55.7951  95.5029 0002392 350.2475   9.7847  1.86231506 34244
BEIDOU-3 M16 (C35)      
1 43647U 18078A   23274.95883076 -.00000097  00000+0  00000+0 0  9997
2 43647  54.8914 334.3880 0005974   3.3931 356.6720  1.86227209 33743
BEIDOU-3 M15 (C34)      
1 43648U 18078B   23275.62565305 -.00000100  00000+0  00000+0 0  9990
2 43648  54.8868 334.3687 0002748   9.6936 350.3712  1.86232217 33777
BEIDOU-3 G1 (C59)       
1 43683U 18085A   23275.51838485 -.00000287  00000+0  00000+0 0  9993
2 43683   1.5758 122.4589 0002241   5.2960 209.8947  1.00268641 18145
BEIDOU-3 M17 (C36)      
1 43706U 18093A   23275.23657538  .00000013  00000+0  00000+0 0  9991
2 43706  54.2544 215.8806 0009546 283.4171  76.4606  1.86231907 33109
BEIDOU-3 M18 (C37)      
1 43707U 18093B   23274.56589975  .00000010  00000+0  00000+0 0  9993
2 43707  54.2554 215.8952 0008057 310.8774  49.0329  1.86229715 33105
BEIDOU-3 IGSO-1 (C38)   
1 44204U 19023A   23274.95201622 -.00000222  00000+0  00000+0 0  9999
2 44204  57.2628  47.9520 0023971 195.4914 229.6400  1.00274009 16449
BEIDOU-2 G8 (C01)       
1 44231U 19027A   23275.88398126 -.00000255  00000+0  00000+0 0  9998
2 44231   2.0280  81.0116 0006910 133.3657 259.6974  1.00274862 16165
BEIDOU-3 IGSO-2 (C39)   
1 44337U 19035A   23274.66586103 -.00000128  00000+0  00000+0 0  9992
2 44337  55.1522 167.5520 0033003 195.9183   5.7931  1.00265974 15740
BEIDOU-3 M24 (C46)      
1 44542U 19061A   23275.17434492  .00000013  00000+0  00000+0 0  9991
2 44542  54.4818 216.1184 0008508 346.4104  13.5500  1.86231471 27373
BEIDOU-3 M23 (C45)      
1 44543U 19061B   23274.77323147  .00000011  00000+0  00000+0 0  9999
2 44543  54.4804 216.1009 0005705 332.0810  30.8737  1.86231722 27368
BEIDOU-3 IGSO-3 (C40)   
1 44709U 19073A   23274.44836083 -.00000174  00000+0  00000+0 0  9999
2 44709  56.4905 291.4655 0035064 190.6983 169.2483  1.00273892 14539
BEIDOU-3 M22 (C44)      
1 44793U 19078A   23275.01976167 -.00000097  00000+0  00000+0 0  9993
2 44793  54.7398 334.3497 0004761  11.3476 348.7240  1.86232143 26239
BEIDOU-3 M21 (C43)      
1 44794U 19078B   23274.61331287 -.00000096  00000+0  00000+0 0  9996
2 44794  54.7138 334.3453 0002822 356.6442   3.4156  1.86232606 26222
BEIDOU-3 M19 (C41)      
1 44864U 19090A   23275.02100906  .00000001  00000+0  00000+0 0  9991
2 44864  55.7271  95.7235 0015185 274.0727 193.0547  1.86231732 25802
BEIDOU-3 M20 (C42)      
1 44865U 19090B   23274.59750484  .00000004  00000+0  00000+0 0  9998
2 44865  55.7285  95.7706 0012923 289.3939 343.5748  1.86231672 25787
BEIDOU-3 G2 (C60)       
1 45344U 20017A   23275.10743775 -.00000150  00000+0  00000+0 0  9998
2 45344   2.0661  17.6352 0003300 179.3814 292.2665  1.00272518 13350
BEIDOU-3 G3 (C61)       
1 45807U 20040A   23275.02341860 -.00000364  00000+0  00000+0 0  9995
2 45807   0.5965 349.7661 0007489 318.1745 181.5301  1.00274820 12167
BEIDOU-3 G4             
1 56564U 23066A   23275.39152417 -.00000123  00000+0  00000+0 0  9999
2 56564   2.7754 288.6935 0006308 221.6950 161.4513  1.00271885  1493
